0 PSLV R/B
1 32477U 08002B   13282.74000134  .00010664  00000-0  41634-3 0  5879
2 32477 041.0462 047.8413 0065488 175.6173 295.6303 15.23810162316995
0 PSLV R/B
1 32477U 08002B   13283.79217041  .00012149  00000-0  47253-3 0  5886
2 32477 041.0460 041.7460 0065618 183.0136 307.6195 15.23830278317157
0 PSLV R/B
1 32477U 08002B   13285.48210730  .00009739  00000-0  38018-3 0  5893
2 32477 041.0462 031.9561 0065808 194.8427 218.4898 15.23862822317414
0 PSLV R/B
1 32477U 08002B   13286.74231321  .00009669  00000-0  37715-3 0  5909
2 32477 041.0463 024.6557 0065922 203.6485 292.0293 15.23886085317604
0 PSLV R/B
1 32477U 08002B   13288.43144105  .00013382  00000-0  51759-3 0  5912
2 32477 041.0464 014.8699 0066050 215.3961 198.8829 15.23922529317865
0 PSLV R/B
1 32477U 08002B   13289.48322652  .00012033  00000-0  46596-3 0  5929
2 32477 041.0463 008.7762 0066122 222.6983 209.2981 15.23946585318025
0 PSLV R/B
1 32477U 08002B   13290.53560119  .00012327  00000-0  47679-3 0  5939
2 32477 041.0462 002.6792 0066161 230.0085 223.0256 15.23967386318187
0 PSLV R/B
1 32477U 08002B   13291.65707145  .00010867  00000-0  42111-3 0  5949
2 32477 041.0460 356.1813 0066191 237.7782 255.9516 15.23991798318353
0 PSLV R/B
1 32477U 08002B   13293.41561392  .00011379  00000-0  44003-3 0  5959
2 32477 041.0457 345.9909 0066193 249.9124 184.4071 15.24027520318624
0 PSLV R/B
1 32477U 08002B   13294.46779178  .00012569  00000-0  48476-3 0  5969
2 32477 041.0456 339.8935 0066159 257.1699 197.4202 15.24047300318789
0 PSLV R/B
1 32477U 08002B   13295.52609939  .00013173  00000-0  50729-3 0  5971
2 32477 041.0456 333.7605 0066108 264.4644 244.1500 15.24071114318940
